OBJECT_NAME,OBJECT_ID,EPOCH,MEAN_MOTION,ECCENTRICITY,INCLINATION,RA_OF_ASC_NODE,ARG_OF_PERICENTER,MEAN_ANOMALY,EPHEMERIS_TYPE,CLASSIFICATION_TYPE,NORAD_CAT_ID,ELEMENT_SET_NO,REV_AT_EPOCH,BSTAR,MEAN_MOTION_DOT,MEAN_MOTION_DDOT
HAWK-5A,2022-057AB,2026-07-13T17:44:04.236288,15.52289665,.0003468,97.6616,355.3240,344.3940,15.7205,0,U,52757,999,23046,.18792E-3,.11322E-3,0
HAWK-6B,2023-011A,2026-07-13T09:52:42.695328,15.23143561,.00039431,40.4967,199.0865,231.0284,129.0174,0,U,55324,999,19184,.11056983E-3,.2471E-4,0
HAWK-6C,2023-011C,2026-07-13T09:51:48.372192,15.23146024,.00044448,40.4959,195.9257,223.1928,136.8534,0,U,55326,999,19185,.11621496E-3,.2607E-4,0
HAWK-6A,2023-011D,2026-07-13T09:51:51.524928,15.23145096,.00039669,40.4967,197.5527,220.6915,139.3598,0,U,55327,999,19185,.1163441E-3,.261E-4,0
HAWK-7A,2023-054P,2026-07-13T18:32:22.996896,15.27623338,.0001547,97.2669,81.4341,341.7421,18.3763,0,U,56191,999,18108,.12157E-3,.3211E-4,0
HAWK-7B,2023-054R,2026-07-13T16:57:57.406752,15.27620769,.0001472,97.2694,79.6434,20.4300,339.6998,0,U,56193,999,18107,.11691E-3,.3084E-4,0
HAWK-7C,2023-054Y,2026-07-13T15:23:27.485376,15.27623740,.0001043,97.2675,80.3406,3.4458,356.6789,0,U,56200,999,18106,.12101E-3,.3195E-4,0
